NORAD_CAT_ID,OBJECT_NAME,OBJECT_TYPE,EPOCH,MEAN_MOTION,ECCENTRICITY,INCLINATION,RA_OF_ASC_NODE,ARG_OF_PERICENTER,MEAN_ANOMALY,BSTAR,MEAN_MOTION_DOT,MEAN_MOTION_DDOT,TLE_LINE0,TLE_LINE1,TLE_LINE2,SEMIMAJOR_AXIS,PERIOD,APOGEE,PERIGEE,DECAYED
52556.0,STARLINK-3763,PAYLOAD,2024-06-17 20:27:17,15.12114028,0.0001156,53.2186,61.7492,96.7944,263.3181,-3.6767e-05,-9.38e-06,0.0,0 STARLINK-3763,1 52556U 22051Z   24169.85228267 -.00000938  00000-0 -36767-4 0  9990,2 52556  53.2186  61.7492 0001156  96.7944 263.3181 15.12114028116648,6907.891,95.231,530.555,528.958,0.0
52556.0,STARLINK-3763,PAYLOAD,2024-06-17 22:02:27,15.12115047,0.000117,53.2186,61.4509,97.1306,262.9821,-2.9792e-05,-8.16e-06,0.0,0 STARLINK-3763,1 52556U 22051Z   24169.91837811 -.00000816  00000-0 -29792-4 0  9993,2 52556  53.2186  61.4509 0001170  97.1306 262.9821 15.12115047116588,6907.888,95.231,530.561,528.945,0.0
52556.0,STARLINK-3763,PAYLOAD,2024-06-18 02:47:59,15.12115755,0.0001212,53.2187,60.5572,98.8332,261.2799,2.496e-05,1.38e-06,0.0,0 STARLINK-3763,1 52556U 22051Z   24170.11666443  .00000138  00000-0  24960-4 0  9995,2 52556  53.2187  60.5572 0001212  98.8332 261.2799 15.12115755116619,6907.886,95.231,530.588,528.914,0.0
52556.0,STARLINK-3763,PAYLOAD,2024-06-18 20:14:58,15.12113401,0.0001202,53.2187,57.2761,97.1629,262.9501,-3.2786e-05,-8.68e-06,0.0,0 STARLINK-3763,1 52556U 22051Z   24170.84372903 -.00000868  00000-0 -32786-4 0  9997,2 52556  53.2187  57.2761 0001202  97.1629 262.9501 15.12113401116729,6907.893,95.231,530.588,528.928,0.0
52556.0,STARLINK-3763,PAYLOAD,2024-06-19 01:00:30,15.12114814,0.0001206,53.2188,56.3815,96.6842,263.4289,-2.2036e-05,-6.81e-06,0.0,0 STARLINK-3763,1 52556U 22051Z   24171.04201685 -.00000681  00000-0 -22036-4 0  9998,2 52556  53.2188  56.3815 0001206  96.6842 263.4289 15.12114814116824,6907.889,95.231,530.587,528.921,0.0
52556.0,STARLINK-3763,PAYLOAD,2024-06-19 08:56:23,15.12111983,0.0001248,53.2194,54.8902,94.8151,265.2985,9.5278e-06,-1.31e-06,0.0,0 STARLINK-3763,1 52556U 22051Z   24171.37249940 -.00000131  00000-0  95278-5 0  9998,2 52556  53.2194  54.8902 0001248  94.8151 265.2985 15.12111983116805,6907.897,95.231,530.624,528.9,0.0
52556.0,STARLINK-3763,PAYLOAD,2024-06-19 21:37:49,15.12115667,0.0001202,53.2193,52.5042,94.04,266.0731,-9.257e-06,-4.59e-06,0.0,0 STARLINK-3763,1 52556U 22051Z   24171.90126898 -.00000459  00000-0 -92570-5 0  9999,2 52556  53.2193  52.5042 0001202  94.0400 266.0731 15.12115667116882,6907.886,95.231,530.581,528.921,0.0
52556.0,STARLINK-3763,PAYLOAD,2024-06-20 02:23:22,15.12112008,0.0001165,53.2189,51.6096,93.2818,266.8309,-3.5228e-05,-9.11e-06,0.0,0 STARLINK-3763,1 52556U 22051Z   24172.09956143 -.00000911  00000-0 -35228-4 0  9993,2 52556  53.2189  51.6096 0001165  93.2818 266.8309 15.12112008116984,6907.897,95.231,530.567,528.957,0.0
52556.0,STARLINK-3763,PAYLOAD,2024-06-20 08:44:04,15.12113637,0.0001146,53.219,50.417,92.2772,267.8353,-1.2357e-05,-5.13e-06,0.0,0 STARLINK-3763,1 52556U 22051Z   24172.36394511 -.00000513  00000-0 -12357-4 0  9994,2 52556  53.2190  50.4170 0001146  92.2772 267.8353 15.12113637116959,6907.892,95.231,530.549,528.966,0.0
52556.0,STARLINK-3763,PAYLOAD,2024-06-20 21:25:31,15.12110661,0.0001175,53.2189,48.0321,86.7678,273.345,-3.0357e-05,-8.26e-06,0.0,0 STARLINK-3763,1 52556U 22051Z   24172.89272024 -.00000826  00000-0 -30357-4 0  9993,2 52556  53.2189  48.0321 0001175  86.7678 273.3450 15.12110661117037,6907.901,95.231,530.578,528.955,0.0
52556.0,STARLINK-3763,PAYLOAD,2024-06-21 02:11:02,15.12114562,0.0001192,53.2186,47.1376,89.9531,270.16,2.6185e-06,-2.52e-06,0.0,0 STARLINK-3763,1 52556U 22051Z   24173.09100576 -.00000252  00000-0  26185-5 0  9995,2 52556  53.2186  47.1376 0001192  89.9531 270.1600 15.12114562117065,6907.889,95.231,530.578,528.931,0.0
52556.0,STARLINK-3763,PAYLOAD,2024-06-21 21:13:11,15.12114629,0.0001212,53.2183,43.559,89.3693,270.744,-1.2023e-05,-5.07e-06,0.0,0 STARLINK-3763,1 52556U 22051Z   24173.88416347 -.00000507  00000-0 -12023-4 0  9997,2 52556  53.2183  43.5590 0001212  89.3693 270.7440 15.12114629117259,6907.889,95.231,530.591,528.917,0.0
52556.0,STARLINK-3763,PAYLOAD,2024-06-21 22:48:22,15.12113081,0.0001273,53.2186,43.2611,91.5938,268.5201,2.0223e-05,5.5e-07,0.0,0 STARLINK-3763,1 52556U 22051Z   24173.95025953  .00000055  00000-0  20223-4 0  9991,2 52556  53.2186  43.2611 0001273  91.5938 268.5201 15.12113081117191,6907.894,95.231,530.638,528.88,0.0
52556.0,STARLINK-3763,PAYLOAD,2024-06-22 14:40:09,15.1211508,0.0001319,53.2186,40.279,87.7947,272.3198,1.5497e-05,-2.7e-07,0.0,0 STARLINK-3763,1 52556U 22051Z   24174.61122322 -.00000027  00000-0  15497-4 0  9990,2 52556  53.2186  40.2790 0001319  87.7947 272.3198 15.12115080117294,6907.888,95.231,530.664,528.842,0.0
52556.0,STARLINK-3763,PAYLOAD,2024-06-22 22:36:03,15.12117167,0.0001275,53.2189,38.7876,89.4124,270.7015,1.1487e-06,-2.77e-06,0.0,0 STARLINK-3763,1 52556U 22051Z   24174.94170476 -.00000277  00000-0  11487-5 0  9992,2 52556  53.2189  38.7876 0001275  89.4124 270.7015 15.12117167117345,6907.881,95.231,530.627,528.866,0.0
52556.0,STARLINK-3763,PAYLOAD,2024-06-23 14:27:50,15.12117506,0.0001375,53.2194,35.8054,81.1647,278.9503,1.9877e-05,4.9e-07,0.0,0 STARLINK-3763,1 52556U 22051Z   24175.60266784  .00000049  00000-0  19877-4 0  9990,2 52556  53.2194  35.8054 0001375  81.1647 278.9503 15.12117506117447,6907.88,95.231,530.695,528.796,0.0
52556.0,STARLINK-3763,PAYLOAD,2024-06-23 22:23:43,15.12119834,0.0001342,53.2194,34.3145,81.3638,278.7508,2.2808e-05,1e-06,0.0,0 STARLINK-3763,1 52556U 22051Z   24175.93314771  .00000100  00000-0  22808-4 0  9992,2 52556  53.2194  34.3145 0001342  81.3638 278.7508 15.12119834117492,6907.873,95.231,530.665,528.811,0.0
52556.0,STARLINK-3763,PAYLOAD,2024-06-23 23:58:54,15.12118398,0.0001388,53.2196,34.0167,78.3887,281.7263,1.272e-05,-7.6e-07,0.0,0 STARLINK-3763,1 52556U 22051Z   24175.99924557 -.00000076  00000-0  12720-4 0  9992,2 52556  53.2196  34.0167 0001388  78.3887 281.7263 15.12118398117572,6907.878,95.231,530.702,528.784,0.0
52556.0,STARLINK-3763,PAYLOAD,2024-06-24 20:36:14,15.12117736,0.0001462,53.2196,30.14,75.1551,284.9605,4.3751e-06,-2.21e-06,0.0,0 STARLINK-3763,1 52556U 22051Z   24176.85849908 -.00000221  00000-0  43751-5 0  9995,2 52556  53.2196  30.1400 0001462  75.1551 284.9605 15.12117736117632,6907.88,95.231,530.755,528.735,0.0
52556.0,STARLINK-3763,PAYLOAD,2024-06-25 20:23:55,15.1211796,0.00013,53.2193,25.6665,86.5715,273.5427,1.5618e-06,-2.7e-06,0.0,0 STARLINK-3763,1 52556U 22051Z   24177.84994232 -.00000270  00000-0  15618-5 0  9991,2 52556  53.2193  25.6665 0001300  86.5715 273.5427 15.12117960117859,6907.879,95.231,530.642,528.846,0.0
52556.0,STARLINK-3763,PAYLOAD,2024-06-27 19:59:16,15.1211639,0.0001284,53.2194,16.7187,93.213,266.9011,1.8917e-05,3.2e-07,0.0,0 STARLINK-3763,1 52556U 22051Z   24179.83283300  .00000032  00000-0  18917-4 0  9998,2 52556  53.2194  16.7187 0001284  93.2130 266.9011 15.12116390118152,6907.884,95.231,530.636,528.862,0.0
52556.0,STARLINK-3763,PAYLOAD,2024-06-28 19:46:57,15.12115603,0.000104,53.2177,12.2441,87.7291,272.3822,-1.552e-05,-5.68e-06,0.0,0 STARLINK-3763,1 52556U 22051Z   24180.82428078 -.00000568  00000-0 -15520-4 0  9995,2 52556  53.2177  12.2441 0001040  87.7291 272.3822 15.12115603118239,6907.886,95.231,530.47,529.033,0.0
52556.0,STARLINK-3763,PAYLOAD,2024-06-29 11:38:45,15.12109926,0.0001162,53.218,9.266,95.3483,264.7643,-5.4554e-05,-1.247e-05,0.0,0 STARLINK-3763,1 52556U 22051Z   24181.48525021 -.00001247  00000-0 -54554-4 0  9999,2 52556  53.2180   9.2660 0001162  95.3483 264.7643 15.12109926118401,6907.904,95.231,530.571,528.966,0.0
52556.0,STARLINK-3763,PAYLOAD,2024-06-29 19:34:39,15.12107653,0.0001155,53.2179,7.7733,92.0179,268.0947,-6.8656e-05,-1.493e-05,0.0,0 STARLINK-3763,1 52556U 22051Z   24181.81573537 -.00001493  00000-0 -68656-4 0  9992,2 52556  53.2179   7.7733 0001155  92.0179 268.0947 15.12107653118387,6907.91,95.231,530.573,528.978,0.0
52556.0,STARLINK-3763,PAYLOAD,2024-06-30 05:05:42,15.12119707,0.0001205,53.2187,5.9824,88.8066,271.3066,1.8656e-05,2.8e-07,0.0,0 STARLINK-3763,1 52556U 22051Z   24182.21230268  .00000028  00000-0  18656-4 0  9994,2 52556  53.2187   5.9824 0001205  88.8066 271.3066 15.12119707118518,6907.874,95.231,530.571,528.906,0.0
52556.0,STARLINK-3763,PAYLOAD,2024-06-30 11:26:26,15.1211295,0.0001286,53.2185,4.7912,91.1355,268.9786,4.1956e-05,4.34e-06,0.0,0 STARLINK-3763,1 52556U 22051Z   24182.47669080  .00000434  00000-0  41956-4 0  9990,2 52556  53.2185   4.7912 0001286  91.1355 268.9786 15.12112950118488,6907.894,95.231,530.648,528.871,0.0
52556.0,STARLINK-3763,PAYLOAD,2024-06-30 19:22:19,15.12112269,0.0001311,53.2195,3.3,96.956,263.1582,3.4231e-05,2.99e-06,0.0,0 STARLINK-3763,1 52556U 22051Z   24182.80717380  .00000299  00000-0  34231-4 0  9991,2 52556  53.2195   3.3000 0001311  96.9560 263.1582 15.12112269118532,6907.896,95.231,530.667,528.856,0.0
52556.0,STARLINK-3763,PAYLOAD,2024-07-01 04:53:24,15.12110044,0.0001319,53.2187,1.5109,85.1624,274.952,7.0639e-06,-1.74e-06,0.0,0 STARLINK-3763,1 52556U 22051Z   24183.20375587 -.00000174  00000-0  70639-5 0  9991,2 52556  53.2187   1.5109 0001319  85.1624 274.9520 15.12110044118667,6907.903,95.231,530.679,528.857,0.0
52556.0,STARLINK-3763,PAYLOAD,2024-07-01 22:20:22,15.12103859,8.24e-05,53.2187,358.2299,75.1841,284.9244,0.00014211,2.179e-05,0.0,0 STARLINK-3763,1 52556U 22051Z   24183.93081661  .00002179  00000-0  14211-3 0  9996,2 52556  53.2187 358.2299 0000824  75.1841 284.9244 15.12103859118704,6907.922,95.232,530.356,529.218,0.0
52556.0,STARLINK-3763,PAYLOAD,2024-07-02 04:41:05,15.12120117,0.0001218,53.2187,357.037,84.0501,276.0632,-1.5266e-06,-3.24e-06,0.0,0 STARLINK-3763,1 52556U 22051Z   24184.19519696 -.00000324  00000-0 -15266-5 0  9994,2 52556  53.2187 357.0370 0001218  84.0501 276.0632 15.12120117118812,6907.873,95.231,530.579,528.896,0.0
